2025-313U               
1 67266U 25313U   26010.90922099  .00010111  00000+0  46918-3 0  9994
2 67266  97.4138  88.1519 0015142 190.4653 169.6269 15.20129196  2034
2025-313V               
1 67267U 25313V   26009.98740785  .00009754  00000+0  45250-3 0  9990
2 67267  97.4120  87.2348 0014274 199.1484 160.9217 15.20159410  1891
ZORKY-2M 7              
1 67268U 25313W   26010.90934184  .00008468  00000+0  39392-3 0  9994
2 67268  97.4121  88.1385 0015284 191.1744 168.9154 15.20092585  2031
2025-313X               
1 67269U 25313X   26010.90877891  .00014197  00000+0  65498-3 0  9998
2 67269  97.4146  88.1534 0015145 189.7270 170.3674 15.20241748  2039
2025-313Y               
1 67270U 25313Y   26010.90947827  .00009529  00000+0  44277-3 0  9992
2 67270  97.4121  88.1489 0015248 191.3753 168.7140 15.20098735  2037
2025-313Z               
1 67271U 25313Z   26010.90982024  .00005147  00000+0  24156-3 0  9997
2 67271  97.4117  88.1391 0015225 187.2026 172.8992 15.19979411  2035
2025-313AA              
1 67272U 25313AA  26010.90839851  .00011534  00000+0  53245-3 0  9995
2 67272  97.4118  88.1393 0014997 191.7572 168.3315 15.20274990  2031
2025-313AB              
1 67273U 25313AB  26010.90965973  .00003635  00000+0  17166-3 0  9996
2 67273  97.4135  88.1414 0014119 195.9286 164.1507 15.19973770  2036
2025-313AC              
1 67274U 25313AC  26009.98738735  .00006808  00000+0  31737-3 0  9992
2 67274  97.4109  87.2413 0014859 193.9552 166.1274 15.20101577  1898
2025-313AD              
1 67275U 25313AD  26010.90850438  .00007364  00000+0  34243-3 0  9995
2 67275  97.4083  88.1435 0014128 193.7874 166.2977 15.20169867  2032
2025-313AE              
1 67276U 25313AE  26009.98692815  .00006638  00000+0  30913-3 0  9998
2 67276  97.4089  87.2384 0013998 196.9263 163.1507 15.20159291  1891
2025-313AF              
1 67277U 25313AF  26010.90860080  .00006577  00000+0  30643-3 0  9996
2 67277  97.4090  88.1443 0014082 193.5559 166.5300 15.20143391  2035
