CCSDS_OMM_VERS = 2.0
CREATION_DATE  = 
ORIGINATOR     = 

OBJECT_NAME    = 2025-313U
OBJECT_ID      = 2025-313U
CENTER_NAME    = EARTH
REF_FRAME      = TEME
TIME_SYSTEM    = UTC
MEAN_ELEMENT_THEORY = SGP/SGP4

EPOCH          = 2026-01-10T21:49:16.693536
MEAN_MOTION    = 15.20129196
ECCENTRICITY   = .00151422
INCLINATION    = 97.4138
RA_OF_ASC_NODE = 88.1519
ARG_OF_PERICENTER = 190.4653
MEAN_ANOMALY   = 169.6269

EPHEMERIS_TYPE = 0
CLASSIFICATION_TYPE = U
NORAD_CAT_ID   = 67266
ELEMENT_SET_NO = 999
REV_AT_EPOCH   = 203
BSTAR          = .46918385E-3
MEAN_MOTION_DOT = .10111E-3
MEAN_MOTION_DDOT = 0

CCSDS_OMM_VERS = 2.0
CREATION_DATE  = 
ORIGINATOR     = 

OBJECT_NAME    = 2025-313V
OBJECT_ID      = 2025-313V
CENTER_NAME    = EARTH
REF_FRAME      = TEME
TIME_SYSTEM    = UTC
MEAN_ELEMENT_THEORY = SGP/SGP4

EPOCH          = 2026-01-09T23:41:52.038240
MEAN_MOTION    = 15.20159410
ECCENTRICITY   = .00142747
INCLINATION    = 97.4120
RA_OF_ASC_NODE = 87.2348
ARG_OF_PERICENTER = 199.1484
MEAN_ANOMALY   = 160.9217

EPHEMERIS_TYPE = 0
CLASSIFICATION_TYPE = U
NORAD_CAT_ID   = 67267
ELEMENT_SET_NO = 999
REV_AT_EPOCH   = 189
BSTAR          = .45250059E-3
MEAN_MOTION_DOT = .9754E-4
MEAN_MOTION_DDOT = 0

CCSDS_OMM_VERS = 2.0
CREATION_DATE  = 
ORIGINATOR     = 

OBJECT_NAME    = ZORKY-2M 7
OBJECT_ID      = 2025-313W
CENTER_NAME    = EARTH
REF_FRAME      = TEME
TIME_SYSTEM    = UTC
MEAN_ELEMENT_THEORY = SGP/SGP4

EPOCH          = 2026-01-10T21:49:27.134976
MEAN_MOTION    = 15.20092585
ECCENTRICITY   = .00152849
INCLINATION    = 97.4121
RA_OF_ASC_NODE = 88.1385
ARG_OF_PERICENTER = 191.1744
MEAN_ANOMALY   = 168.9154

EPHEMERIS_TYPE = 0
CLASSIFICATION_TYPE = U
NORAD_CAT_ID   = 67268
ELEMENT_SET_NO = 999
REV_AT_EPOCH   = 203
BSTAR          = .39391598E-3
MEAN_MOTION_DOT = .8468E-4
MEAN_MOTION_DDOT = 0

CCSDS_OMM_VERS = 2.0
CREATION_DATE  = 
ORIGINATOR     = 

OBJECT_NAME    = 2025-313X
OBJECT_ID      = 2025-313X
CENTER_NAME    = EARTH
REF_FRAME      = TEME
TIME_SYSTEM    = UTC
MEAN_ELEMENT_THEORY = SGP/SGP4

EPOCH          = 2026-01-10T21:48:38.497824
MEAN_MOTION    = 15.20241748
ECCENTRICITY   = .00151457
INCLINATION    = 97.4146
RA_OF_ASC_NODE = 88.1534
ARG_OF_PERICENTER = 189.7270
MEAN_ANOMALY   = 170.3674

EPHEMERIS_TYPE = 0
CLASSIFICATION_TYPE = U
NORAD_CAT_ID   = 67269
ELEMENT_SET_NO = 999
REV_AT_EPOCH   = 203
BSTAR          = .65498414E-3
MEAN_MOTION_DOT = .14197E-3
MEAN_MOTION_DDOT = 0

CCSDS_OMM_VERS = 2.0
CREATION_DATE  = 
ORIGINATOR     = 

OBJECT_NAME    = 2025-313Y
OBJECT_ID      = 2025-313Y
CENTER_NAME    = EARTH
REF_FRAME      = TEME
TIME_SYSTEM    = UTC
MEAN_ELEMENT_THEORY = SGP/SGP4

EPOCH          = 2026-01-10T21:49:38.922528
MEAN_MOTION    = 15.20098735
ECCENTRICITY   = .00152486
INCLINATION    = 97.4121
RA_OF_ASC_NODE = 88.1489
ARG_OF_PERICENTER = 191.3753
MEAN_ANOMALY   = 168.7140

EPHEMERIS_TYPE = 0
CLASSIFICATION_TYPE = U
NORAD_CAT_ID   = 67270
ELEMENT_SET_NO = 999
REV_AT_EPOCH   = 203
BSTAR          = .44276916E-3
MEAN_MOTION_DOT = .9529E-4
MEAN_MOTION_DDOT = 0

CCSDS_OMM_VERS = 2.0
CREATION_DATE  = 
ORIGINATOR     = 

OBJECT_NAME    = 2025-313Z
OBJECT_ID      = 2025-313Z
CENTER_NAME    = EARTH
REF_FRAME      = TEME
TIME_SYSTEM    = UTC
MEAN_ELEMENT_THEORY = SGP/SGP4

EPOCH          = 2026-01-10T21:50:08.468736
MEAN_MOTION    = 15.19979411
ECCENTRICITY   = .00152255
INCLINATION    = 97.4117
RA_OF_ASC_NODE = 88.1391
ARG_OF_PERICENTER = 187.2026
MEAN_ANOMALY   = 172.8992

EPHEMERIS_TYPE = 0
CLASSIFICATION_TYPE = U
NORAD_CAT_ID   = 67271
ELEMENT_SET_NO = 999
REV_AT_EPOCH   = 203
BSTAR          = .24156405E-3
MEAN_MOTION_DOT = .5147E-4
MEAN_MOTION_DDOT = 0

CCSDS_OMM_VERS = 2.0
CREATION_DATE  = 
ORIGINATOR     = 

OBJECT_NAME    = 2025-313AA
OBJECT_ID      = 2025-313AA
CENTER_NAME    = EARTH
REF_FRAME      = TEME
TIME_SYSTEM    = UTC
MEAN_ELEMENT_THEORY = SGP/SGP4

EPOCH          = 2026-01-10T21:48:05.631264
MEAN_MOTION    = 15.20274990
ECCENTRICITY   = .00149975
INCLINATION    = 97.4118
RA_OF_ASC_NODE = 88.1393
ARG_OF_PERICENTER = 191.7572
MEAN_ANOMALY   = 168.3315

EPHEMERIS_TYPE = 0
CLASSIFICATION_TYPE = U
NORAD_CAT_ID   = 67272
ELEMENT_SET_NO = 999
REV_AT_EPOCH   = 203
BSTAR          = .53244617E-3
MEAN_MOTION_DOT = .11534E-3
MEAN_MOTION_DDOT = 0

CCSDS_OMM_VERS = 2.0
CREATION_DATE  = 
ORIGINATOR     = 

OBJECT_NAME    = 2025-313AB
OBJECT_ID      = 2025-313AB
CENTER_NAME    = EARTH
REF_FRAME      = TEME
TIME_SYSTEM    = UTC
MEAN_ELEMENT_THEORY = SGP/SGP4

EPOCH          = 2026-01-10T21:49:54.600672
MEAN_MOTION    = 15.19973770
ECCENTRICITY   = .00141195
INCLINATION    = 97.4135
RA_OF_ASC_NODE = 88.1414
ARG_OF_PERICENTER = 195.9286
MEAN_ANOMALY   = 164.1507

EPHEMERIS_TYPE = 0
CLASSIFICATION_TYPE = U
NORAD_CAT_ID   = 67273
ELEMENT_SET_NO = 999
REV_AT_EPOCH   = 203
BSTAR          = .17166407E-3
MEAN_MOTION_DOT = .3635E-4
MEAN_MOTION_DDOT = 0

CCSDS_OMM_VERS = 2.0
CREATION_DATE  = 
ORIGINATOR     = 

OBJECT_NAME    = 2025-313AC
OBJECT_ID      = 2025-313AC
CENTER_NAME    = EARTH
REF_FRAME      = TEME
TIME_SYSTEM    = UTC
MEAN_ELEMENT_THEORY = SGP/SGP4

EPOCH          = 2026-01-09T23:41:50.267040
MEAN_MOTION    = 15.20101577
ECCENTRICITY   = .0014859
INCLINATION    = 97.4109
RA_OF_ASC_NODE = 87.2413
ARG_OF_PERICENTER = 193.9552
MEAN_ANOMALY   = 166.1274

EPHEMERIS_TYPE = 0
CLASSIFICATION_TYPE = U
NORAD_CAT_ID   = 67274
ELEMENT_SET_NO = 999
REV_AT_EPOCH   = 189
BSTAR          = .31736696E-3
MEAN_MOTION_DOT = .6808E-4
MEAN_MOTION_DDOT = 0

CCSDS_OMM_VERS = 2.0
CREATION_DATE  = 
ORIGINATOR     = 

OBJECT_NAME    = 2025-313AD
OBJECT_ID      = 2025-313AD
CENTER_NAME    = EARTH
REF_FRAME      = TEME
TIME_SYSTEM    = UTC
MEAN_ELEMENT_THEORY = SGP/SGP4

EPOCH          = 2026-01-10T21:48:14.778432
MEAN_MOTION    = 15.20169867
ECCENTRICITY   = .00141287
INCLINATION    = 97.4083
RA_OF_ASC_NODE = 88.1435
ARG_OF_PERICENTER = 193.7874
MEAN_ANOMALY   = 166.2977

EPHEMERIS_TYPE = 0
CLASSIFICATION_TYPE = U
NORAD_CAT_ID   = 67275
ELEMENT_SET_NO = 999
REV_AT_EPOCH   = 203
BSTAR          = .34243218E-3
MEAN_MOTION_DOT = .7364E-4
MEAN_MOTION_DDOT = 0

CCSDS_OMM_VERS = 2.0
CREATION_DATE  = 
ORIGINATOR     = 

OBJECT_NAME    = 2025-313AE
OBJECT_ID      = 2025-313AE
CENTER_NAME    = EARTH
REF_FRAME      = TEME
TIME_SYSTEM    = UTC
MEAN_ELEMENT_THEORY = SGP/SGP4

EPOCH          = 2026-01-09T23:41:10.592160
MEAN_MOTION    = 15.20159291
ECCENTRICITY   = .00139983
INCLINATION    = 97.4089
RA_OF_ASC_NODE = 87.2384
ARG_OF_PERICENTER = 196.9263
MEAN_ANOMALY   = 163.1507

EPHEMERIS_TYPE = 0
CLASSIFICATION_TYPE = U
NORAD_CAT_ID   = 67276
ELEMENT_SET_NO = 999
REV_AT_EPOCH   = 189
BSTAR          = .30912991E-3
MEAN_MOTION_DOT = .6638E-4
MEAN_MOTION_DDOT = 0

CCSDS_OMM_VERS = 2.0
CREATION_DATE  = 
ORIGINATOR     = 

OBJECT_NAME    = 2025-313AF
OBJECT_ID      = 2025-313AF
CENTER_NAME    = EARTH
REF_FRAME      = TEME
TIME_SYSTEM    = UTC
MEAN_ELEMENT_THEORY = SGP/SGP4

EPOCH          = 2026-01-10T21:48:23.109120
MEAN_MOTION    = 15.20143391
ECCENTRICITY   = .0014082
INCLINATION    = 97.4090
RA_OF_ASC_NODE = 88.1443
ARG_OF_PERICENTER = 193.5559
MEAN_ANOMALY   = 166.5300

EPHEMERIS_TYPE = 0
CLASSIFICATION_TYPE = U
NORAD_CAT_ID   = 67277
ELEMENT_SET_NO = 999
REV_AT_EPOCH   = 203
BSTAR          = .3064273E-3
MEAN_MOTION_DOT = .6577E-4
MEAN_MOTION_DDOT = 0

